NORAD_CAT_ID,OBJECT_NAME,OBJECT_TYPE,EPOCH,MEAN_MOTION,ECCENTRICITY,INCLINATION,RA_OF_ASC_NODE,ARG_OF_PERICENTER,MEAN_ANOMALY,BSTAR,MEAN_MOTION_DOT,MEAN_MOTION_DDOT,TLE_LINE0,TLE_LINE1,TLE_LINE2,SEMIMAJOR_AXIS,PERIOD,APOGEE,PERIGEE,DECAYED
52456.0,STARLINK-3896,PAYLOAD,2024-02-15 09:59:08,15.08826712,8.52e-05,53.2157,210.7012,93.6775,266.4314,0.00015697,2.21e-05,0.0,0 STARLINK-3896,1 52456U 22049F   24046.41607093  .00002210  00000-0  15697-3 0  9991,2 52456  53.2157 210.7012 0000852  93.6775 266.4314 15.08826712 98555,6917.921,95.438,540.375,539.197,0.0
52456.0,STARLINK-3896,PAYLOAD,2024-02-15 14:45:18,15.08844394,0.0001128,53.2159,209.8085,91.6049,268.5072,-0.0001996,-3.463e-05,0.0,0 STARLINK-3896,1 52456U 22049F   24046.61479169 -.00003463  00000-0 -19960-3 0  9994,2 52456  53.2159 209.8085 0001128  91.6049 268.5072 15.08844394 98421,6917.867,95.437,540.512,538.952,0.0
52456.0,STARLINK-3896,PAYLOAD,2024-02-15 17:56:04,15.08832594,0.0001371,53.2171,209.2126,91.5285,268.5864,2.7038e-05,1.42e-06,0.0,0 STARLINK-3896,1 52456U 22049F   24046.74727291  .00000142  00000-0  27038-4 0  9995,2 52456  53.2171 209.2126 0001371  91.5285 268.5864 15.08832594 98446,6917.903,95.438,540.716,538.82,0.0
52456.0,STARLINK-3896,PAYLOAD,2024-02-16 03:28:22,15.08838919,0.000144,53.2177,207.4281,90.4033,269.7124,1.9789e-05,2.7e-07,0.0,0 STARLINK-3896,1 52456U 22049F   24047.14471028  .00000027  00000-0  19789-4 0  9990,2 52456  53.2177 207.4281 0001440  90.4033 269.7124 15.08838919 98663,6917.884,95.438,540.745,538.753,0.0
52456.0,STARLINK-3896,PAYLOAD,2024-02-16 14:36:04,15.08839658,0.0001462,53.2177,205.3465,99.6879,260.4278,4.3137e-05,3.99e-06,0.0,0 STARLINK-3896,1 52456U 22049F   24047.60838975  .00000399  00000-0  43137-4 0  9995,2 52456  53.2177 205.3465 0001462  99.6879 260.4278 15.08839658 98576,6917.881,95.438,540.758,538.735,0.0
52456.0,STARLINK-3896,PAYLOAD,2024-02-16 20:57:36,15.08847072,0.0001391,53.2171,204.1555,91.3083,268.8068,0.00010517,1.387e-05,0.0,0 STARLINK-3896,1 52456U 22049F   24047.87334334  .00001387  00000-0  10517-3 0  9997,2 52456  53.2171 204.1555 0001391  91.3083 268.8068 15.08847072 98617,6917.859,95.437,540.686,538.761,0.0
52456.0,STARLINK-3896,PAYLOAD,2024-02-17 14:26:52,15.08829686,0.0001694,53.2157,200.8818,85.1366,274.982,7.2525e-05,8.66e-06,0.0,0 STARLINK-3896,1 52456U 22049F   24048.60200028  .00000866  00000-0  72525-4 0  9990,2 52456  53.2157 200.8818 0001694  85.1366 274.9820 15.08829686 98724,6917.912,95.438,540.949,538.605,0.0
52456.0,STARLINK-3896,PAYLOAD,2024-02-17 19:13:02,15.08834966,0.0001357,53.217,199.9901,79.22,280.8945,2.0815e-05,4.3e-07,0.0,0 STARLINK-3896,1 52456U 22049F   24048.80071878  .00000043  00000-0  20815-4 0  9993,2 52456  53.2170 199.9901 0001357  79.2200 280.8945 15.08834966 98919,6917.896,95.438,540.7,538.822,0.0
52456.0,STARLINK-3896,PAYLOAD,2024-02-18 14:17:39,15.08840379,0.0001362,53.2164,196.4244,87.2451,272.8697,8.1064e-05,1.002e-05,0.0,0 STARLINK-3896,1 52456U 22049F   24049.59559579  .00001002  00000-0  81064-4 0  9998,2 52456  53.2164 196.4244 0001362  87.2451 272.8697 15.08840379 98872,6917.879,95.438,540.686,538.802,0.0
52456.0,STARLINK-3896,PAYLOAD,2024-02-18 17:28:25,15.08848703,0.0001339,53.2171,195.8288,88.7951,271.3195,9.4093e-05,1.21e-05,0.0,0 STARLINK-3896,1 52456U 22049F   24049.72807091  .00001210  00000-0  94093-4 0  9995,2 52456  53.2171 195.8288 0001339  88.7951 271.3195 15.08848703 99053,6917.854,95.437,540.645,538.792,0.0
52456.0,STARLINK-3896,PAYLOAD,2024-02-19 14:08:26,15.08836486,0.0001392,53.2171,191.9653,87.4389,272.6763,0.00013314,1.831e-05,0.0,0 STARLINK-3896,1 52456U 22049F   24050.58919910  .00001831  00000-0  13314-3 0  9990,2 52456  53.2171 191.9653 0001392  87.4389 272.6763 15.08836486 99023,6917.891,95.438,540.719,538.793,0.0
52456.0,STARLINK-3896,PAYLOAD,2024-02-19 18:54:35,15.08846727,0.0001333,53.2168,191.0699,101.0534,259.0608,0.00014557,2.03e-05,0.0,0 STARLINK-3896,1 52456U 22049F   24050.78791099  .00002030  00000-0  14557-3 0  9990,2 52456  53.2168 191.0699 0001333 101.0534 259.0608 15.08846727 99217,6917.86,95.437,540.647,538.803,0.0
52456.0,STARLINK-3896,PAYLOAD,2024-02-20 02:51:31,15.08839357,0.0001446,53.2176,189.5816,104.743,255.3722,0.0001036,1.361e-05,0.0,0 STARLINK-3896,1 52456U 22049F   24051.11911586  .00001361  00000-0  10360-3 0  9997,2 52456  53.2176 189.5816 0001446 104.7430 255.3722 15.08839357 99261,6917.882,95.438,540.748,538.747,0.0
52456.0,STARLINK-3896,PAYLOAD,2024-02-20 13:59:13,15.08847184,0.0001815,53.2178,187.4996,114.3548,245.7634,1.9337e-05,2e-07,0.0,0 STARLINK-3896,1 52456U 22049F   24051.58279287  .00000020  00000-0  19337-4 0  9998,2 52456  53.2178 187.4996 0001815 114.3548 245.7634 15.08847184 99178,6917.858,95.437,540.979,538.468,0.0
52456.0,STARLINK-3896,PAYLOAD,2024-02-20 18:45:22,15.08854102,0.0001438,53.2175,186.6082,103.2189,256.8964,4.3814e-05,4.1e-06,0.0,0 STARLINK-3896,1 52456U 22049F   24051.78150668  .00000410  00000-0  43814-4 0  9991,2 52456  53.2175 186.6082 0001438 103.2189 256.8964 15.08854102 99369,6917.837,95.437,540.697,538.708,0.0
52456.0,STARLINK-3896,PAYLOAD,2024-02-21 12:14:37,15.08840157,0.0001472,53.2174,183.3335,104.9218,255.1937,3.2703e-05,2.33e-06,0.0,0 STARLINK-3896,1 52456U 22049F   24052.51015463  .00000233  00000-0  32703-4 0  9994,2 52456  53.2174 183.3335 0001472 104.9218 255.1937 15.08840157 99471,6917.88,95.438,540.763,538.727,0.0
52456.0,STARLINK-3896,PAYLOAD,2024-02-21 15:25:23,15.08842754,0.0001341,53.2172,182.7419,91.8508,268.2638,5.5621e-05,5.97e-06,0.0,0 STARLINK-3896,1 52456U 22049F   24052.64263255  .00000597  00000-0  55621-4 0  9999,2 52456  53.2172 182.7419 0001341  91.8508 268.2638 15.08842754 99339,6917.872,95.437,540.665,538.809,0.0
52456.0,STARLINK-3896,PAYLOAD,2024-02-22 13:40:47,15.08838971,0.0001306,53.2168,178.5838,83.4142,276.6998,5.1354e-05,5.29e-06,0.0,0 STARLINK-3896,1 52456U 22049F   24053.56999701  .00000529  00000-0  51354-4 0  9997,2 52456  53.2168 178.5838 0001306  83.4142 276.6998 15.08838971 99477,6917.884,95.438,540.652,538.845,0.0
52456.0,STARLINK-3896,PAYLOAD,2024-02-23 15:06:57,15.08844028,0.0001316,53.2175,173.8285,102.7337,257.3802,6.32e-05,7.18e-06,0.0,0 STARLINK-3896,1 52456U 22049F   24054.62983387  .00000718  00000-0  63200-4 0  9991,2 52456  53.2175 173.8285 0001316 102.7337 257.3802 15.08844028 99639,6917.868,95.437,540.643,538.823,0.0
52456.0,STARLINK-3896,PAYLOAD,2024-02-24 11:46:59,15.08835433,0.0001165,53.2171,169.9608,104.7282,255.3839,2.6208e-05,1.29e-06,0.0,0 STARLINK-3896,1 52456U 22049F   24055.49096292  .00000129  00000-0  26208-4 0  9990,2 52456  53.2171 169.9608 0001165 104.7282 255.3839 15.08835433 99923,6917.894,95.438,540.565,538.953,0.0
52456.0,STARLINK-3896,PAYLOAD,2024-02-24 13:22:22,15.08836298,0.0001603,53.2173,169.6622,107.2412,252.8756,2.9433e-05,1.8e-06,0.0,0 STARLINK-3896,1 52456U 22049F   24055.55720266  .00000180  00000-0  29433-4 0  9992,2 52456  53.2173 169.6622 0001603 107.2412 252.8756 15.08836298 99771,6917.892,95.438,540.866,538.648,0.0
52456.0,STARLINK-3896,PAYLOAD,2024-02-25 13:13:08,15.08851588,0.000162,53.2177,165.2022,108.9824,251.1343,7.8353e-05,9.6e-06,0.0,0 STARLINK-3896,1 52456U 22049F   24056.55079222  .00000960  00000-0  78353-4 0  9993,2 52456  53.2177 165.2022 0001620 108.9824 251.1343 15.08851588100085,6917.845,95.437,540.831,538.589,0.0
52456.0,STARLINK-3896,PAYLOAD,2024-02-25 14:48:31,15.08855668,0.0001489,53.217,164.9049,102.9276,257.1882,0.00010079,1.317e-05,0.0,0 STARLINK-3896,1 52456U 22049F   24056.61702951  .00001317  00000-0  10079-3 0  9999,2 52456  53.2170 164.9049 0001489 102.9276 257.1882 15.08855668 99939,6917.832,95.437,540.728,538.667,0.0
52456.0,STARLINK-3896,PAYLOAD,2024-02-26 00:20:50,15.08844157,0.0001458,53.2185,163.1222,75.5908,284.5246,0.00015026,2.104e-05,0.0,0 STARLINK-3896,1 52456U 22049F   24057.01447542  .00002104  00000-0  15026-3 0  9998,2 52456  53.2185 163.1222 0001458  75.5908 284.5246 15.08844157100158,6917.868,95.437,540.741,538.724,0.0
52456.0,STARLINK-3896,PAYLOAD,2024-02-26 11:28:33,15.08838253,0.0001735,53.218,161.0416,72.7761,287.3421,0.00012509,1.703e-05,0.0,0 STARLINK-3896,1 52456U 22049F   24057.47816115  .00001703  00000-0  12509-3 0  9991,2 52456  53.2180 161.0416 0001735  72.7761 287.3421 15.08838253100223,6917.886,95.438,540.951,538.55,0.0
52456.0,STARLINK-3896,PAYLOAD,2024-02-26 13:03:55,15.08843107,0.0001705,53.2184,160.7403,93.8568,266.2619,9.2834e-05,1.19e-05,0.0,0 STARLINK-3896,1 52456U 22049F   24057.54439712  .00001190  00000-0  92834-4 0  9993,2 52456  53.2184 160.7403 0001705  93.8568 266.2619 15.08843107100077,6917.871,95.437,540.915,538.556,0.0
52456.0,STARLINK-3896,PAYLOAD,2024-02-26 16:14:41,15.08848239,0.0001715,53.2178,160.1437,104.8335,255.2848,0.0001239,1.685e-05,0.0,0 STARLINK-3896,1 52456U 22049F   24057.67687178  .00001685  00000-0  12390-3 0  9995,2 52456  53.2178 160.1437 0001715 104.8335 255.2848 15.08848239100250,6917.855,95.437,540.907,538.534,0.0
52456.0,STARLINK-3896,PAYLOAD,2024-02-27 11:19:20,15.08842887,0.0001512,53.2177,156.5779,98.8216,261.2947,-7.6688e-05,-1.508e-05,0.0,0 STARLINK-3896,1 52456U 22049F   24058.47176213 -.00001508  00000-0 -76688-4 0  9994,2 52456  53.2177 156.5779 0001512  98.8216 261.2947 15.08842887100375,6917.872,95.437,540.783,538.691,0.0
52456.0,STARLINK-3896,PAYLOAD,2024-02-27 12:54:43,15.08841486,0.0001533,53.2174,156.281,86.2197,273.897,-7.4444e-05,-1.473e-05,0.0,0 STARLINK-3896,1 52456U 22049F   24058.53800332 -.00001473  00000-0 -74444-4 0  9996,2 52456  53.2174 156.2810 0001533  86.2197 273.8970 15.08841486100220,6917.876,95.437,540.801,538.68,0.0
52456.0,STARLINK-3896,PAYLOAD,2024-02-28 12:45:30,15.08837727,0.0001369,53.2173,151.821,82.0741,278.0406,9.1669e-05,1.171e-05,0.0,0 STARLINK-3896,1 52456U 22049F   24059.53160306  .00001171  00000-0  91669-4 0  9998,2 52456  53.2173 151.8210 0001369  82.0741 278.0406 15.08837727100538,6917.887,95.438,540.699,538.805,0.0
